CCSDS_OMM_VERS = 2.0
CREATION_DATE  = 
ORIGINATOR     = 

OBJECT_NAME    = SL-16 R/B
OBJECT_ID      = 1998-045B
CENTER_NAME    = EARTH
REF_FRAME      = TEME
TIME_SYSTEM    = UTC
MEAN_ELEMENT_THEORY = SGP/SGP4

EPOCH          = 2026-03-20T04:02:05.762400
MEAN_MOTION    = 14.16195266
ECCENTRICITY   = .0007435
INCLINATION    = 71.0118
RA_OF_ASC_NODE = 159.5397
ARG_OF_PERICENTER = 351.4096
MEAN_ANOMALY   = 8.6899

EPHEMERIS_TYPE = 0
CLASSIFICATION_TYPE = U
NORAD_CAT_ID   = 25407
ELEMENT_SET_NO = 999
REV_AT_EPOCH   = 42858
BSTAR          = .55336E-4
MEAN_MOTION_DOT = .62E-6
MEAN_MOTION_DDOT = 0

CCSDS_OMM_VERS = 2.0
CREATION_DATE  = 
ORIGINATOR     = 

OBJECT_NAME    = ISS (ZARYA)
OBJECT_ID      = 1998-067A
CENTER_NAME    = EARTH
REF_FRAME      = TEME
TIME_SYSTEM    = UTC
MEAN_ELEMENT_THEORY = SGP/SGP4

EPOCH          = 2026-03-20T03:53:37.592160
MEAN_MOTION    = 15.48388697
ECCENTRICITY   = .0006234
INCLINATION    = 51.6345
RA_OF_ASC_NODE = 20.5881
ARG_OF_PERICENTER = 211.0869
MEAN_ANOMALY   = 148.9751

EPHEMERIS_TYPE = 0
CLASSIFICATION_TYPE = U
NORAD_CAT_ID   = 25544
ELEMENT_SET_NO = 999
REV_AT_EPOCH   = 55795
BSTAR          = .1652E-3
MEAN_MOTION_DOT = .8474E-4
MEAN_MOTION_DDOT = 0

CCSDS_OMM_VERS = 2.0
CREATION_DATE  = 
ORIGINATOR     = 

OBJECT_NAME    = CZ-4B R/B
OBJECT_ID      = 1999-025C
CENTER_NAME    = EARTH
REF_FRAME      = TEME
TIME_SYSTEM    = UTC
MEAN_ELEMENT_THEORY = SGP/SGP4

EPOCH          = 2026-03-20T02:23:36.518208
MEAN_MOTION    = 14.18267282
ECCENTRICITY   = .0036261
INCLINATION    = 98.6605
RA_OF_ASC_NODE = 123.1337
ARG_OF_PERICENTER = 316.2022
MEAN_ANOMALY   = 69.8522

EPHEMERIS_TYPE = 0
CLASSIFICATION_TYPE = U
NORAD_CAT_ID   = 25732
ELEMENT_SET_NO = 999
REV_AT_EPOCH   = 38964
BSTAR          = .38554E-4
MEAN_MOTION_DOT = .37E-6
MEAN_MOTION_DDOT = 0

CCSDS_OMM_VERS = 2.0
CREATION_DATE  = 
ORIGINATOR     = 

OBJECT_NAME    = OKEAN-O
OBJECT_ID      = 1999-039A
CENTER_NAME    = EARTH
REF_FRAME      = TEME
TIME_SYSTEM    = UTC
MEAN_ELEMENT_THEORY = SGP/SGP4

EPOCH          = 2026-03-20T03:05:35.747808
MEAN_MOTION    = 14.80351489
ECCENTRICITY   = .000098
INCLINATION    = 97.9419
RA_OF_ASC_NODE = 138.9132
ARG_OF_PERICENTER = 76.6877
MEAN_ANOMALY   = 283.4444

EPHEMERIS_TYPE = 0
CLASSIFICATION_TYPE = U
NORAD_CAT_ID   = 25860
ELEMENT_SET_NO = 999
REV_AT_EPOCH   = 43593
BSTAR          = .80767E-4
MEAN_MOTION_DOT = .564E-5
MEAN_MOTION_DDOT = 0

CCSDS_OMM_VERS = 2.0
CREATION_DATE  = 
ORIGINATOR     = 

OBJECT_NAME    = SL-16 R/B
OBJECT_ID      = 1999-039B
CENTER_NAME    = EARTH
REF_FRAME      = TEME
TIME_SYSTEM    = UTC
MEAN_ELEMENT_THEORY = SGP/SGP4

EPOCH          = 2026-03-20T03:59:42.193248
MEAN_MOTION    = 14.81744903
ECCENTRICITY   = .0013933
INCLINATION    = 97.9943
RA_OF_ASC_NODE = 138.2464
ARG_OF_PERICENTER = 219.3554
MEAN_ANOMALY   = 140.6647

EPHEMERIS_TYPE = 0
CLASSIFICATION_TYPE = U
NORAD_CAT_ID   = 25861
ELEMENT_SET_NO = 999
REV_AT_EPOCH   = 43841
BSTAR          = .62646E-4
MEAN_MOTION_DOT = .44E-5
MEAN_MOTION_DDOT = 0

CCSDS_OMM_VERS = 2.0
CREATION_DATE  = 
ORIGINATOR     = 

OBJECT_NAME    = DELTA 2 R/B
OBJECT_ID      = 1999-041E
CENTER_NAME    = EARTH
REF_FRAME      = TEME
TIME_SYSTEM    = UTC
MEAN_ELEMENT_THEORY = SGP/SGP4

EPOCH          = 2026-03-19T16:57:28.264032
MEAN_MOTION    = 14.11863310
ECCENTRICITY   = .05025928
INCLINATION    = 51.7607
RA_OF_ASC_NODE = 261.2673
ARG_OF_PERICENTER = 17.9781
MEAN_ANOMALY   = 343.8236

EPHEMERIS_TYPE = 0
CLASSIFICATION_TYPE = U
NORAD_CAT_ID   = 25876
ELEMENT_SET_NO = 999
REV_AT_EPOCH   = 36444
BSTAR          = .10292501E-3
MEAN_MOTION_DOT = .393E-5
MEAN_MOTION_DDOT = 0

CCSDS_OMM_VERS = 2.0
CREATION_DATE  = 
ORIGINATOR     = 

OBJECT_NAME    = HELIOS 1B
OBJECT_ID      = 1999-064A
CENTER_NAME    = EARTH
REF_FRAME      = TEME
TIME_SYSTEM    = UTC
MEAN_ELEMENT_THEORY = SGP/SGP4

EPOCH          = 2026-03-20T04:56:45.272256
MEAN_MOTION    = 14.87737104
ECCENTRICITY   = .00022
INCLINATION    = 98.1684
RA_OF_ASC_NODE = 341.7580
ARG_OF_PERICENTER = 60.1250
MEAN_ANOMALY   = 300.0184

EPHEMERIS_TYPE = 0
CLASSIFICATION_TYPE = U
NORAD_CAT_ID   = 25977
ELEMENT_SET_NO = 999
REV_AT_EPOCH   = 68682
BSTAR          = .15735E-3
MEAN_MOTION_DOT = .1376E-4
MEAN_MOTION_DDOT = 0

CCSDS_OMM_VERS = 2.0
CREATION_DATE  = 
ORIGINATOR     = 

OBJECT_NAME    = TERRA
OBJECT_ID      = 1999-068A
CENTER_NAME    = EARTH
REF_FRAME      = TEME
TIME_SYSTEM    = UTC
MEAN_ELEMENT_THEORY = SGP/SGP4

EPOCH          = 2026-03-20T04:34:51.428928
MEAN_MOTION    = 14.61025057
ECCENTRICITY   = .0003281
INCLINATION    = 97.9571
RA_OF_ASC_NODE = 132.2233
ARG_OF_PERICENTER = 129.0967
MEAN_ANOMALY   = 277.5118

EPHEMERIS_TYPE = 0
CLASSIFICATION_TYPE = U
NORAD_CAT_ID   = 25994
ELEMENT_SET_NO = 999
REV_AT_EPOCH   = 39661
BSTAR          = .77175E-4
MEAN_MOTION_DOT = .334E-5
MEAN_MOTION_DDOT = 0

CCSDS_OMM_VERS = 2.0
CREATION_DATE  = 
ORIGINATOR     = 

OBJECT_NAME    = SL-16 R/B
OBJECT_ID      = 2000-006B
CENTER_NAME    = EARTH
REF_FRAME      = TEME
TIME_SYSTEM    = UTC
MEAN_ELEMENT_THEORY = SGP/SGP4

EPOCH          = 2026-03-20T04:28:13.747008
MEAN_MOTION    = 14.15823608
ECCENTRICITY   = .0016207
INCLINATION    = 71.0005
RA_OF_ASC_NODE = 75.7642
ARG_OF_PERICENTER = 173.7834
MEAN_ANOMALY   = 186.3494

EPHEMERIS_TYPE = 0
CLASSIFICATION_TYPE = U
NORAD_CAT_ID   = 26070
ELEMENT_SET_NO = 999
REV_AT_EPOCH   = 35004
BSTAR          = -.19829E-4
MEAN_MOTION_DOT = -.87E-6
MEAN_MOTION_DDOT = 0

CCSDS_OMM_VERS = 2.0
CREATION_DATE  = 
ORIGINATOR     = 

OBJECT_NAME    = TITAN 4B R/B
OBJECT_ID      = 2000-047B
CENTER_NAME    = EARTH
REF_FRAME      = TEME
TIME_SYSTEM    = UTC
MEAN_ELEMENT_THEORY = SGP/SGP4

EPOCH          = 2026-03-20T03:57:30.523104
MEAN_MOTION    = 15.09657761
ECCENTRICITY   = .0039172
INCLINATION    = 67.9913
RA_OF_ASC_NODE = 11.0527
ARG_OF_PERICENTER = 22.9803
MEAN_ANOMALY   = 337.3088

EPHEMERIS_TYPE = 0
CLASSIFICATION_TYPE = U
NORAD_CAT_ID   = 26474
ELEMENT_SET_NO = 999
REV_AT_EPOCH   = 39449
BSTAR          = .20025E-3
MEAN_MOTION_DOT = .3152E-4
MEAN_MOTION_DDOT = 0

CCSDS_OMM_VERS = 2.0
CREATION_DATE  = 
ORIGINATOR     = 

OBJECT_NAME    = ENVISAT
OBJECT_ID      = 2002-009A
CENTER_NAME    = EARTH
REF_FRAME      = TEME
TIME_SYSTEM    = UTC
MEAN_ELEMENT_THEORY = SGP/SGP4

EPOCH          = 2026-03-19T21:41:37.755744
MEAN_MOTION    = 14.39040461
ECCENTRICITY   = .0001293
INCLINATION    = 98.3746
RA_OF_ASC_NODE = 32.2590
ARG_OF_PERICENTER = 82.1557
MEAN_ANOMALY   = 345.6576

EPHEMERIS_TYPE = 0
CLASSIFICATION_TYPE = U
NORAD_CAT_ID   = 27386
ELEMENT_SET_NO = 999
REV_AT_EPOCH   = 26064
BSTAR          = .46212E-4
MEAN_MOTION_DOT = .1E-5
MEAN_MOTION_DDOT = 0

CCSDS_OMM_VERS = 2.0
CREATION_DATE  = 
ORIGINATOR     = 

OBJECT_NAME    = IDEFIX & ARIANE 42P R/B
OBJECT_ID      = 2002-021B
CENTER_NAME    = EARTH
REF_FRAME      = TEME
TIME_SYSTEM    = UTC
MEAN_ELEMENT_THEORY = SGP/SGP4

EPOCH          = 2026-03-19T20:15:20.950272
MEAN_MOTION    = 14.31032832
ECCENTRICITY   = .00121607
INCLINATION    = 98.5881
RA_OF_ASC_NODE = 17.3295
ARG_OF_PERICENTER = 152.5787
MEAN_ANOMALY   = 207.6040

EPHEMERIS_TYPE = 0
CLASSIFICATION_TYPE = U
NORAD_CAT_ID   = 27422
ELEMENT_SET_NO = 999
REV_AT_EPOCH   = 24547
BSTAR          = .10586531E-3
MEAN_MOTION_DOT = .235E-5
MEAN_MOTION_DDOT = 0

