SL-16 R/B               
1 25407U 98045B   26079.16812225  .00000062  00000+0  55336-4 0  9998
2 25407  71.0118 159.5397 0007435 351.4096   8.6899 14.16195266428582
ISS (ZARYA)             
1 25544U 98067A   26079.16224065  .00008474  00000+0  16520-3 0  9999
2 25544  51.6345  20.5881 0006234 211.0869 148.9751 15.48388697557957
CZ-4B R/B               
1 25732U 99025C   26079.09972822  .00000037  00000+0  38554-4 0  9995
2 25732  98.6605 123.1337 0036261 316.2022  69.8522 14.18267282389642
OKEAN-O                 
1 25860U 99039A   26079.12888597  .00000564  00000+0  80767-4 0  9999
2 25860  97.9419 138.9132 0000980  76.6877 283.4444 14.80351489435933
SL-16 R/B               
1 25861U 99039B   26079.16646057  .00000440  00000+0  62646-4 0  9996
2 25861  97.9943 138.2464 0013933 219.3554 140.6647 14.81744903438410
DELTA 2 R/B             
1 25876U 99041E   26078.70657713  .00000393  00000+0  10293-3 0  9992
2 25876  51.7607 261.2673 0502592  17.9781 343.8236 14.11863310364447
HELIOS 1B               
1 25977U 99064A   26079.20607954  .00001376  00000+0  15735-3 0  9995
2 25977  98.1684 341.7580 0002200  60.1250 300.0184 14.87737104686822
TERRA                   
1 25994U 99068A   26079.19087302  .00000334  00000+0  77175-4 0  9995
2 25994  97.9571 132.2233 0003281 129.0967 277.5118 14.61025057396610
SL-16 R/B               
1 26070U 00006B   26079.18627022 -.00000087  00000+0 -19829-4 0  9992
2 26070  71.0005  75.7642 0016207 173.7834 186.3494 14.15823608350045
TITAN 4B R/B            
1 26474U 00047B   26079.16493661  .00003152  00000+0  20025-3 0  9996
2 26474  67.9913  11.0527 0039172  22.9803 337.3088 15.09657761394490
ENVISAT                 
1 27386U 02009A   26078.90390921  .00000100  00000+0  46212-4 0  9992
2 27386  98.3746  32.2590 0001293  82.1557 345.6576 14.39040461260645
IDEFIX & ARIANE 42P R/B 
1 27422U 02021B   26078.84399248  .00000235  00000+0  10587-3 0  9995
2 27422  98.5881  17.3295 0012160 152.5787 207.6040 14.31032832245478
